SPACEWAY 2              
1 28903U 05046B   22077.70336122  .00000104  00000+0  00000+0 0  9992
2 28903   1.7002  88.6020 0000801 167.9967  33.9189  1.00272076 35783
COSMOS 2416             
1 28908U 05048A   22077.89616883 -.00000011  00000+0 -13078-3 0  9996
2 28908  82.4690 219.5807 0007699  40.0746  77.9089 12.55515565744221
METEOSAT-9 (MSG-2)      
1 28912U 05049B   22077.82012060  .00000150  00000+0  00000+0 0  9991
2 28912   5.8164  66.8532 0000910 262.6344 168.7081  1.00424304 59480
EUTELSAT 174A           
1 28924U 05052A   22077.76572219  .00000009  00000+0  00000+0 0  9991
2 28924   0.2826  91.2129 0006333 268.0344 266.6929  1.00270970 36770
ECHOSTAR 10             
1 28935U 06003A   22077.63646597 -.00000056  00000+0  00000+0 0  9990
2 28935   0.0239 281.9034 0001852  45.5247 327.6747  1.00270688 58914
SPAINSAT                
1 28945U 06007A   22077.59409676 -.00000217  00000+0  00000+0 0  9994
2 28945   0.0451 247.2915 0003042  89.3121  23.3719  1.00273655 58651
EUTELSAT HOTBIRD 13E    
1 28946U 06007B   22077.80540197  .00000086  00000+0  00000+0 0  9996
2 28946   0.0440 176.8552 0002401 187.2252 115.1751  1.00273415 58756
JCSAT-5A                
1 29045U 06010A   22077.82907934 -.00000329  00000+0  00000+0 0  9990
2 29045   0.0103 164.3370 0002420 220.8627 221.6675  1.00271037 58200
ASTRA 1KR               
1 29055U 06012A   22077.80662302  .00000119  00000+0  00000+0 0  9994
2 29055   0.0488 270.9841 0002777  29.1289 185.7452  1.00270863 30178
EROS B                  
1 29079U 06014A   22077.84617873  .00011282  00000+0  49906-3 0  9994
2 29079  97.3699 200.1690 0004069 260.1796 256.9670 15.21837508882586
CLOUDSAT                
1 29107U 06016A   22077.84475458  .00000198  00000+0  48412-4 0  9995
2 29107  98.3183  37.2108 0002212 203.4937 156.6163 14.62821905845787
CALIPSO                 
1 29108U 06016B   22077.83990340  .00000619  00000+0  13095-3 0  9993
2 29108  98.3151  36.8136 0001307  79.0636 281.0712 14.62761806845771
EWS-G1 (GOES 13)        
1 29155U 06018A   22077.74330712  .00000036  00000+0  00000+0 0  9999
2 29155   0.3613  97.2630 0002451 169.3940 238.6391  1.00272957 27822
EUTELSAT 113 WEST A     
1 29162U 06020A   22077.63420339 -.00000038  00000+0  00000+0 0  9996
2 29162   0.0117 263.4696 0002972  94.0878 293.8998  1.00271496 57913
RESURS-DK 1             
1 29228U 06021A   22077.91342231  .00000834  00000+0  69192-4 0  9990
2 29228  69.9379 359.7151 0006557 227.9187 132.1417 15.02985978868777
GALAXY 16 (G-16)        
1 29236U 06023A   22077.63951751 -.00000127  00000+0  00000+0 0  9997
2 29236   0.0041 159.5562 0002901 208.0203 299.7972  1.00271586 57411
GENESIS 1               
1 29252U 06029A   22077.88079416  .00003523  00000+0  16595-3 0  9999
2 29252  64.5245   8.3405 0059830 276.2287  83.2024 15.19805513865283
ARIRANG-2 (KOMPSAT-2)   
1 29268U 06031A   22077.83556262  .00000307  00000+0  69795-4 0  9991
2 29268  97.9038 310.8538 0015389 300.2015  59.7670 14.62217721834653
EUTELSAT HOTBIRD 13B    
1 29270U 06032A   22077.73362590  .00000086  00000+0  00000+0 0  9996
2 29270   0.0678   4.3937 0006158 348.7411 100.2064  1.00272853 31754
JCSAT-3A                
1 29272U 06033A   22077.75656428 -.00000346  00000+0  00000+0 0  9997
2 29272   0.0389 262.9382 0002450 125.6712 188.0265  1.00270440 32183
SYRACUSE 3B             
1 29273U 06033B   22077.80173882 -.00000044  00000+0  00000+0 0  9997
2 29273   0.0208 133.2299 0003764 240.5408  85.9678  1.00272131 57144
KOREASAT 5 (MUGUNGWHA 5)
1 29349U 06034A   22077.82532896 -.00000359  00000+0  00000+0 0  9997
2 29349   0.0105 191.2244 0001657 149.8537 245.4347  1.00273226 25766
HINODE (SOLAR-B)        
1 29479U 06041A   22077.92978152  .00000306  00000+0  66456-4 0  9992
2 29479  98.1273  94.2219 0019333 147.7193 212.5197 14.64712707827509
NAVSTAR 58 (USA 190)    
1 29486U 06042A   22077.86083354  .00000023  00000+0  00000+0 0  9999
2 29486  54.7278 212.8747 0103660  20.7675 318.0387  2.00559623113274
DIRECTV 9S              
1 29494U 06043A   22077.64431722 -.00000114  00000+0  00000+0 0  9993
2 29494   0.0140 221.3498 0003162 141.2173 304.3492  1.00271762 35824
OPTUS D1                
1 29495U 06043B   22077.76293122 -.00000112  00000+0  00000+0 0  9995
2 29495   0.0285 276.6901 0003630  83.8230 250.4107  1.00271265 56568
SHIJIAN-6 02A (SJ-6 02A)
1 29505U 06046A   22077.85458827  .00001791  00000+0  16631-3 0  9999
2 29505  97.7858  99.4611 0006060  68.6447 291.5399 14.95648576839153
SHIJIAN-6 02B (SJ-6 02B)
1 29506U 06046B   22077.85604033  .00000759  00000+0  76955-4 0  9991
2 29506  97.8047  99.6593 0003140 132.7187 227.4274 14.93800863838613
XM-4 (BLUES)            
1 29520U 06049A   22077.63300288 -.00000024  00000+0  00000+0 0  9990
2 29520   0.0660 317.0862 0001797  12.8878 318.8311  1.00271407 35912
DMSP 5D-3 F17 (USA 191) 
1 29522U 06050A   22077.93396229  .00000094  00000+0  72302-4 0  9992
2 29522  98.7733  94.6592 0010415 153.4543 206.7165 14.14079598793116
BADR-4                  
1 29526U 06051A   22077.85203522  .00000143  00000+0  00000+0 0  9997
2 29526   0.0544 344.1798 0005074 359.6662 165.2568  1.00268324 35713
NAVSTAR 59 (USA 192)    
1 29601U 06052A   22077.33769020  .00000030  00000+0  00000+0 0  9990
2 29601  55.5796 275.6107 0085015  71.7402 289.2039  2.00574123112286
WILDBLUE-1              
1 29643U 06054A   22077.63646602 -.00000050  00000+0  00000+0 0  9994
2 29643   0.0156 152.0233 0001818 201.7211 300.3491  1.00272864 38232
AMC-18                  
1 29644U 06054B   22077.49915294 -.00000217  00000+0  00000+0 0  9990
2 29644   0.0205 271.2513 0002594  84.2960 277.1678  1.00271279 55988
LAPAN-TUBSAT            
1 29709U 07001A   22077.90706455  .00000441  00000+0  61705-4 0  9990
2 29709  97.9546  41.0051 0012390 184.3827 175.7288 14.82393788821099
CARTOSAT-2 (IRS-P7)     
1 29710U 07001B   22077.81911229  .00009558  00000+0  25780-3 0  9999
2 29710  97.8613 178.3423 0160925  14.8716 345.7172 15.25909283822402
THEMIS A                
1 30580U 07004A   22077.26581199 -.00000339  00000+0 -26294-1 0  9996
2 30580  15.2732 353.6983 8384923 148.2532 316.4842  0.87834076 27636
OE (NEXTSAT)            
1 30774U 07006C   22077.61828997  .00014011  00000+0  24773-3 0  9994
2 30774  45.9987 154.5170 0006314 280.4788  79.5408 15.50356391839741
FALCONSAT-3             
1 30776U 07006E   22077.57998308  .00018910  00000+0  36539-3 0  9990
2 30776  35.4325 132.6437 0002740 229.6976 130.3515 15.46886326835471
CFESAT                  
1 30777U 07006F   22077.70090284  .00028965  00000+0  54449-3 0  9993
2 30777  35.4218 170.9385 0002581 247.4642 112.5815 15.47604680835063
INSAT-4B                
1 30793U 07007A   22077.77121693 -.00000019  00000+0  00000+0 0  9999
2 30793   2.0851  92.7647 0009383 111.3085  91.2013  0.99078134 26642
SKYNET 5A               
1 30794U 07007B   22077.82175302 -.00000271  00000+0  00000+0 0  9992
2 30794   1.9805  88.7293 0003005 269.6324 208.9651  1.00275185 55140
THEMIS D                
1 30797U 07004D   22076.26374705 -.00000399  00000+0  00000+0 0  9998
2 30797  11.3948 343.4956 8354402 161.0683   9.3563  0.87837069 27428
THEMIS E                
1 30798U 07004E   22077.48058368 -.00000342  00000+0  00000+0 0  9996
2 30798  11.8919 355.5460 8339162 151.6356  22.1195  0.87840446 52272
ANIK F3                 
1 31102U 07009A   22077.70737324 -.00000001  00000+0  00000+0 0  9994
2 31102   0.0210 150.7807 0002516 214.4920 306.8947  1.00271566 31005
HAIYANG-1B              
1 31113U 07010A   22077.67944931  .00000035  00000+0  29245-4 0  9991
2 31113  98.3293 106.6795 0014926 119.6858 240.5813 14.30297888778790
SAUDISAT 3              
1 31118U 07012B   22077.86879909  .00000173  00000+0  37383-4 0  9996
2 31118  97.9593  27.1595 0016276 121.6486 238.6310 14.69270270799801
SAUDICOMSAT 7           
1 31119U 07012C   22077.80978925  .00000421  00000+0  91543-4 0  9993
2 31119  98.1752  24.5732 0060301  15.9762 344.3323 14.61987327795463
SAUDICOMSAT 6           
1 31121U 07012E   22077.83370392  .00000288  00000+0  69270-4 0  9996
2 31121  98.2179  19.8884 0077574 114.1895 246.7438 14.58773962793738
SAUDICOMSAT 5           
1 31124U 07012H   22077.84608979  .00000424  00000+0  89397-4 0  9999
2 31124  98.1435  26.3087 0050681 323.5455  36.2300 14.63705684796332
SAUDICOMSAT 3           
1 31125U 07012J   22077.81171971  .00000433  00000+0  88009-4 0  9993
2 31125  98.1086  27.9082 0041746 270.2062  89.4357 14.65507451797237
SAUDICOMSAT 4           
1 31127U 07012L   22077.79064210  .00000388  00000+0  87224-4 0  9996
2 31127  98.1985  22.8734 0069055  62.6078 298.2126 14.60497180794646
AGILE                   
1 31135U 07013A   22077.11097504  .00008819  00000+0  20999-3 0  9996
2 31135   2.4673 231.3397 0010540  94.9136 265.2122 15.35877662462874
AIM                     
1 31304U 07015A   22077.76031998  .00005387  00000+0  28331-3 0  9997
2 31304  97.8582 353.6867 0004471 349.3234  10.7902 15.16108179817446
ASTRA 1L                
1 31306U 07016A   22077.80662302  .00000119  00000+0  00000+0 0  9991
2 31306   0.0636 313.4798 0004589  12.3719 160.0163  1.00271658 29462
GALAXY 17 (G-17)        
1 31307U 07016B   22077.42164358 -.00000175  00000+0  00000+0 0  9991
2 31307   0.0143 107.0967 0003056 248.7690 240.8772  1.00272360 54240
YAOGAN 2                
1 31490U 07019A   22077.89992272  .00000518  00000+0  80725-4 0  9999
2 31490  98.2359 227.9568 0019759 215.6826 144.3064 14.77230146798174
GLOBALSTAR M065         
1 31571U 07020A   22077.89198178 -.00000105  00000+0 -50236-5 0  9993
2 31571  51.9896 237.3818 0001438  92.4471  63.7064 12.62266608683611
GLOBALSTAR M069         
1 31573U 07020C   22077.65675706 -.00000109  00000+0 -29822-4 0  9996
2 31573  51.9941 194.3650 0001147 101.1265   5.5027 12.62259695684708
